NORAD_CAT_ID,OBJECT_NAME,OBJECT_TYPE,EPOCH,MEAN_MOTION,ECCENTRICITY,INCLINATION,RA_OF_ASC_NODE,ARG_OF_PERICENTER,MEAN_ANOMALY,BSTAR,MEAN_MOTION_DOT,MEAN_MOTION_DDOT,TLE_LINE0,TLE_LINE1,TLE_LINE2,SEMIMAJOR_AXIS,PERIOD,APOGEE,PERIGEE,DECAYED
55783.0,STARLINK-5825,PAYLOAD,2024-03-20 13:32:18,14.9831968,0.0003215,70.0,217.8051,273.9887,86.0904,-0.00014065,-1.77e-05,0.0,0 STARLINK-5825,1 55783U 23028AU  24080.56410654 -.00001770  00000-0 -14065-3 0  9994,2 55783  70.0000 217.8051 0003215 273.9887  86.0904 14.98319680 59309,6950.225,96.108,574.324,569.855,0.0
55783.0,STARLINK-5825,PAYLOAD,2024-03-20 18:20:42,14.98323219,0.000311,70.0002,217.3007,271.4599,88.6203,-0.00010085,-1.296e-05,0.0,0 STARLINK-5825,1 55783U 23028AU  24080.76438390 -.00001296  00000-0 -10085-3 0  9994,2 55783  70.0002 217.3007 0003110 271.4599  88.6203 14.98323219 59330,6950.214,96.107,574.24,569.917,0.0
55783.0,STARLINK-5825,PAYLOAD,2024-03-21 02:21:22,14.98326989,0.0003147,70.0003,216.4595,269.2377,90.8421,-3.1987e-05,-4.75e-06,0.0,0 STARLINK-5825,1 55783U 23028AU  24081.09818019 -.00000475  00000-0 -31987-4 0  9994,2 55783  70.0003 216.4595 0003147 269.2377  90.8421 14.98326989 59381,6950.202,96.107,574.254,569.88,0.0
55783.0,STARLINK-5825,PAYLOAD,2024-03-21 11:58:10,14.98333065,0.0003102,70.0004,215.4502,269.6468,90.4335,1.6941e-05,1.09e-06,0.0,0 STARLINK-5825,1 55783U 23028AU  24081.49873530  .00000109  00000-0  16941-4 0  9992,2 55783  70.0004 215.4502 0003102 269.6468  90.4335 14.98333065 59445,6950.183,96.107,574.204,569.892,0.0
55783.0,STARLINK-5825,PAYLOAD,2024-03-21 15:10:26,14.98338361,0.0003239,69.9999,215.1133,269.3194,90.7593,-1.2775e-05,-2.46e-06,0.0,0 STARLINK-5825,1 55783U 23028AU  24081.63225227 -.00000246  00000-0 -12775-4 0  9997,2 55783  69.9999 215.1133 0003239 269.3194  90.7593 14.98338361 59461,6950.167,96.106,574.283,569.781,0.0
55783.0,STARLINK-5825,PAYLOAD,2024-03-21 18:22:42,14.98344575,0.0003109,70.0,214.7762,270.5523,89.528,6.1111e-05,6.36e-06,0.0,0 STARLINK-5825,1 55783U 23028AU  24081.76576563  .00000636  00000-0  61111-4 0  9992,2 55783  70.0000 214.7762 0003109 270.5523  89.5280 14.98344575 59481,6950.148,96.106,574.174,569.852,0.0
55783.0,STARLINK-5825,PAYLOAD,2024-03-22 12:00:11,14.9832942,0.0002896,70.0004,212.9253,269.6899,90.3928,0.00015833,1.797e-05,0.0,0 STARLINK-5825,1 55783U 23028AU  24082.50013028  .00001797  00000-0  15833-3 0  9995,2 55783  70.0004 212.9253 0002896 269.6899  90.3928 14.98329420 59590,6950.195,96.107,574.072,570.047,0.0
55783.0,STARLINK-5825,PAYLOAD,2024-03-22 13:36:19,14.98329255,0.0002771,70.0004,212.7561,264.05,96.0343,0.0001602,1.819e-05,0.0,0 STARLINK-5825,1 55783U 23028AU  24082.56689004  .00001819  00000-0  16020-3 0  9998,2 55783  70.0004 212.7561 0002771 264.0500  96.0343 14.98329255 59602,6950.195,96.107,573.986,570.134,0.0
55783.0,STARLINK-5825,PAYLOAD,2024-03-22 18:24:43,14.98333387,0.0002837,70.0008,212.2519,266.5478,93.5356,0.00018211,2.081e-05,0.0,0 STARLINK-5825,1 55783U 23028AU  24082.76716632  .00002081  00000-0  18211-3 0  9994,2 55783  70.0008 212.2519 0002837 266.5478  93.5356 14.98333387 59638,6950.182,96.107,574.019,570.076,0.0
55783.0,STARLINK-5825,PAYLOAD,2024-03-23 12:02:13,14.98322692,0.0003046,70.0002,210.4016,271.754,88.327,-0.00015119,-1.896e-05,0.0,0 STARLINK-5825,1 55783U 23028AU  24083.50154429 -.00001896  00000-0 -15119-3 0  9996,2 55783  70.0002 210.4016 0003046 271.7540  88.3270 14.98322692 59741,6950.215,96.107,574.198,569.963,0.0
55783.0,STARLINK-5825,PAYLOAD,2024-03-23 18:26:45,14.98329467,0.0002747,70.0008,209.728,264.5242,95.5604,-0.00011019,-1.407e-05,0.0,0 STARLINK-5825,1 55783U 23028AU  24083.76857902 -.00001407  00000-0 -11019-3 0  9993,2 55783  70.0008 209.7280 0002747 264.5242  95.5604 14.98329467 59789,6950.195,96.107,573.969,570.15,0.0
55783.0,STARLINK-5825,PAYLOAD,2024-03-24 13:40:22,14.98330994,0.0002203,70.0017,207.7092,249.7703,110.3219,-0.00013237,-1.672e-05,0.0,0 STARLINK-5825,1 55783U 23028AU  24084.56969997 -.00001672  00000-0 -13237-3 0  9998,2 55783  70.0017 207.7092 0002203 249.7703 110.3219 14.98330994 59901,6950.19,96.107,573.586,570.524,0.0
55783.0,STARLINK-5825,PAYLOAD,2024-03-24 18:28:47,14.98333522,0.0002467,70.0021,207.2035,260.3977,99.6903,5.5424e-05,5.69e-06,0.0,0 STARLINK-5825,1 55783U 23028AU  24084.76999038  .00000569  00000-0  55424-4 0  9996,2 55783  70.0021 207.2035 0002467 260.3977  99.6903 14.98333522 59934,6950.182,96.107,573.762,570.332,0.0
55783.0,STARLINK-5825,PAYLOAD,2024-03-25 00:53:17,14.9835811,0.0003395,70.0001,206.528,260.1997,99.8779,-0.00036894,-4.496e-05,0.0,0 STARLINK-5825,1 55783U 23028AU  24085.03700416 -.00004496  00000-0 -36894-3 0  9991,2 55783  70.0001 206.5280 0003395 260.1997  99.8779 14.98358110 59974,6950.106,96.105,574.331,569.611,0.0
55783.0,STARLINK-5825,PAYLOAD,2024-03-25 12:06:14,14.98327891,0.0002695,70.0013,205.3521,259.9916,100.0939,0.00013036,1.463e-05,0.0,0 STARLINK-5825,1 55783U 23028AU  24085.50433440  .00001463  00000-0  13036-3 0  9995,2 55783  70.0013 205.3521 0002695 259.9916 100.0939 14.98327891 60046,6950.199,96.107,573.937,570.191,0.0
55783.0,STARLINK-5825,PAYLOAD,2024-03-25 18:32:27,14.97009069,0.0002979,70.0006,204.6812,325.9496,34.1471,-0.014909,-0.00167963,0.0,0 STARLINK-5825,1 55783U 23028AU  24085.77254060 -.00167963  00000-0 -14909-1 0  9991,2 55783  70.0006 204.6812 0002979 325.9496  34.1471 14.97009069 60080,6954.281,96.192,578.217,574.074,0.0
55783.0,STARLINK-5825,PAYLOAD,2024-03-26 06:00:02,14.98274276,0.0003101,70.0021,203.4702,269.0583,152.0982,0.00677,0.00081515,0.0,0 STARLINK-5825,1 55783U 23028AU  24086.25002315  .00081515  00000-0  67700-2 0  9993,2 55783  70.0021 203.4702 0003101 269.0583 152.0982 14.98274276 60155,6950.365,96.111,574.386,570.075,0.0
55783.0,STARLINK-5825,PAYLOAD,2024-03-26 10:32:09,14.98314629,0.0003148,69.9999,202.9936,272.3399,87.7399,-0.00018745,-2.328e-05,0.0,0 STARLINK-5825,1 55783U 23028AU  24086.43899405 -.00002328  00000-0 -18745-3 0  9990,2 55783  69.9999 202.9936 0003148 272.3399  87.7399 14.98314629 60188,6950.24,96.108,574.293,569.917,0.0
55783.0,STARLINK-5825,PAYLOAD,2024-03-26 13:44:25,14.98316345,0.0003002,69.9995,202.6564,267.65,92.4315,-0.00017517,-2.182e-05,0.0,0 STARLINK-5825,1 55783U 23028AU  24086.57251333 -.00002182  00000-0 -17517-3 0  9991,2 55783  69.9995 202.6564 0003002 267.6500  92.4315 14.98316345 60209,6950.235,96.108,574.187,570.014,0.0
55783.0,STARLINK-5825,PAYLOAD,2024-03-26 16:56:41,14.98316263,0.0002883,70.0004,202.3219,267.8721,92.2108,-7.6812e-05,-1.009e-05,0.0,0 STARLINK-5825,1 55783U 23028AU  24086.70603221 -.00001009  00000-0 -76812-4 0  9994,2 55783  70.0004 202.3219 0002883 267.8721  92.2108 14.98316263 60229,6950.235,96.108,574.104,570.097,0.0
55783.0,STARLINK-5825,PAYLOAD,2024-03-27 00:57:20,14.98332799,0.0003138,70.0006,201.4792,266.9413,93.1387,-9.7683e-05,-1.258e-05,0.0,0 STARLINK-5825,1 55783U 23028AU  24087.03982218 -.00001258  00000-0 -97683-4 0  9992,2 55783  70.0006 201.4792 0003138 266.9413  93.1387 14.98332799 60275,6950.184,96.107,574.23,569.868,0.0
55783.0,STARLINK-5825,PAYLOAD,2024-03-27 12:10:16,14.98343164,0.0002826,70.001,200.3003,273.9461,86.1375,-9.9487e-05,-1.28e-05,0.0,0 STARLINK-5825,1 55783U 23028AU  24087.50713541 -.00001280  00000-0 -99487-4 0  9994,2 55783  70.0010 200.3003 0002826 273.9461  86.1375 14.98343164 60342,6950.152,96.106,573.981,570.053,0.0
55783.0,STARLINK-5825,PAYLOAD,2024-03-27 13:46:24,14.98341697,0.0003057,69.9998,200.1318,265.2093,94.8717,5.9067e-05,6.12e-06,0.0,0 STARLINK-5825,1 55783U 23028AU  24087.57389141  .00000612  00000-0  59067-4 0  9992,2 55783  69.9998 200.1318 0003057 265.2093  94.8717 14.98341697 60359,6950.157,96.106,574.146,569.897,0.0
55783.0,STARLINK-5825,PAYLOAD,2024-03-27 16:58:39,14.98346074,0.0003084,70.0005,199.7964,270.7298,89.3507,0.00010092,1.112e-05,0.0,0 STARLINK-5825,1 55783U 23028AU  24087.70740708  .00001112  00000-0  10092-3 0  9997,2 55783  70.0005 199.7964 0003084 270.7298  89.3507 14.98346074 60371,6950.143,96.106,574.152,569.865,0.0
55783.0,STARLINK-5825,PAYLOAD,2024-03-28 12:12:17,14.98316316,0.0003149,70.001,197.7756,266.7794,93.3005,0.00025456,2.945e-05,0.0,0 STARLINK-5825,1 55783U 23028AU  24088.50854082  .00002945  00000-0  25456-3 0  9992,2 55783  70.0010 197.7756 0003149 266.7794  93.3005 14.98316316 60499,6950.235,96.108,574.289,569.912,0.0
55783.0,STARLINK-5825,PAYLOAD,2024-03-28 13:48:25,14.98324847,0.0003045,70.0002,197.6075,270.1744,89.9066,0.00018591,2.126e-05,0.0,0 STARLINK-5825,1 55783U 23028AU  24088.57529779  .00002126  00000-0  18591-3 0  9994,2 55783  70.0002 197.6075 0003045 270.1744  89.9066 14.98324847 60500,6950.209,96.107,574.19,569.957,0.0
55783.0,STARLINK-5825,PAYLOAD,2024-03-29 06:00:02,14.98319975,0.0003179,70.0021,195.9069,267.4935,131.0333,0.0054186,0.00065149,0.0,0 STARLINK-5825,1 55783U 23028AU  24089.25002315  .00065149  00000-0  54186-2 0  9995,2 55783  70.0021 195.9069 0003179 267.4935 131.0333 14.98319975 60607,6950.224,96.108,574.298,569.879,0.0
55783.0,STARLINK-5825,PAYLOAD,2024-03-29 14:00:01,14.98365073,0.0003204,70.0019,195.0666,271.6768,124.2767,-0.0053268,-0.00063141,0.0,0 STARLINK-5825,1 55783U 23028AU  24089.58334491 -.00063141  00000-0 -53268-2 0  9996,2 55783  70.0019 195.0666 0003204 271.6768 124.2767 14.98365073 60658,6950.084,96.105,574.176,569.723,0.0
55783.0,STARLINK-5825,PAYLOAD,2024-03-29 22:00:00,14.98331436,0.0003156,70.0017,194.2262,270.5495,122.9013,-0.0029277,-0.00034854,0.0,0 STARLINK-5825,1 55783U 23028AU  24089.91667824 -.00034854  00000-0 -29277-2 0  9994,2 55783  70.0017 194.2262 0003156 270.5495 122.9013 14.98331436  5542,6950.188,96.107,574.247,569.86,0.0
55783.0,STARLINK-5825,PAYLOAD,2024-03-30 00:00:00,14.98316979,0.0003167,70.0018,194.0161,268.2264,214.5991,-0.00020947,-2.591e-05,0.0,0 STARLINK-5825,1 55783U 23028AU  24090.00001157 -.00002591  00000-0 -20947-3 0  9996,2 55783  70.0018 194.0161 0003167 268.2264 214.5991 14.98316979 60717,6950.233,96.108,574.299,569.897,0.0
